satname,norad_id,inclination_deg,eccentricity,mean_motion_rev_per_day,perigee_km,apogee_km,l1,l2
STARLINK-1202,45183,53.1582,0.0001169,15.30201314,474.4099896567086,476.0123024532568,1 45183U 20012F   26087.89105211  .00006574  00000+0  23388-3 0  9994,2 45183  53.1582 310.0634 0001169  85.8683 274.2451 15.30201314337894
STARLINK-1216,45185,53.159,0.000132,15.30203264,474.30068253425634,476.1099649077187,1 45185U 20012H   26087.88156733  .00004465  00000+0  16276-3 0  9995,2 45185  53.1590 310.0851 0001320  83.9946 276.1205 15.30203264337834
STARLINK-1225,45187,53.1613,0.000146,15.30187491,474.2518244377834,476.2530141482175,1 45187U 20012K   26087.87849000 -.00000908  00000+0 -18532-4 0  9990,2 45187  53.1613 310.5408 0001460  87.6801 272.4367 15.30187491337876
STARLINK-1230,45189,53.1594,0.0001305,15.30198349,474.3256359237903,476.11436210053307,1 45189U 20012M   26087.88796476  .00002515  00000+0  97015-4 0  9998,2 45189  53.1594 310.5561 0001305  87.6066 272.5084 15.30198349335102
STARLINK-1234,45190,53.0394,0.0006373,15.65685685,366.9660636438348,375.5688545674093,1 45190U 20012N   26087.81799976  .00068121  00000+0  66180-3 0  9994,2 45190  53.0394 231.5063 0006373 353.3697   6.7232 15.65685685338874
STARLINK-1269,45197,53.1599,6.47e-05,15.30315106,474.42801555024744,475.31479483787916,1 45197U 20012V   26087.88476379 -.00028542  00000+0 -95182-3 0  9996,2 45197  53.1599 310.4314 0000647  82.5291 277.5784 15.30315106337851
STARLINK-1154,45198,53.0465,0.0005225,15.49034609,415.997119706426,423.10070148299747,1 45198U 20012W   26087.91668981  .00101154  00000+0  18199-2 0  9994,2 45198  53.0465 278.0679 0005225 164.8757 122.7653 15.49034609  5858
STARLINK-1199,45201,53.1578,0.0001119,15.3020648,474.4288334441071,475.962609307152,1 45201U 20012Z   26087.85407551  .00003018  00000+0  11394-3 0  9997,2 45201  53.1578 294.8199 0001119  88.5499 271.5629 15.30206480338094
STARLINK-1209,45206,53.0445,0.0008458,15.54407689,398.13872535328665,409.61117676970207,1 45206U 20012AE  26087.85533645  .00094627  00000+0  14053-2 0  9996,2 45206  53.0445 241.0851 0008458 334.9141  25.1457 15.54407689337894
STARLINK-1231,45212,53.0417,0.0003731,15.22640892,495.3130845529331,500.44396733839403,1 45212U 20012AL  26087.85522571  .00043682  00000+0  18563-2 0  9994,2 45212  53.0417 287.6572 0003731 165.0527 195.0580 15.22640892338149
STARLINK-1271,45217,53.1573,0.0001209,15.30204004,474.37454540330964,476.0316830429283,1 45217U 20012AR  26087.85198543  .00001822  00000+0  73624-4 0  9998,2 45217  53.1573 294.9550 0001209  73.4251 286.6883 15.30204004338096
STARLINK-1191,45222,53.1574,5.32e-05,15.31807746,470.0544856629158,470.7831720031036,1 45222U 20012AW  26087.79761570  .00058947  00000+0  18900-2 0  9997,2 45222  53.1574 269.9732 0000532 303.3814  56.7136 15.31807746338444
STARLINK-1212,45223,53.0462,0.0004075,15.55571778,397.7287594898535,403.25334135094545,1 45223U 20012AX  26087.82453889  .00103985  00000+0  14789-2 0  9997,2 45223  53.0462 257.7303 0004075 208.4550 151.6239 15.55571778338614
STARLINK-1215,45225,53.1585,0.0001185,15.30206205,474.3844224456052,476.00866249517094,1 45225U 20012AZ  26087.79292420  .00003989  00000+0  14670-3 0  9990,2 45225  53.1585 269.5717 0001185  94.5926 265.5210 15.30206205338407
STARLINK-1221,45227,53.0652,0.0003668,15.4262361,435.86929144403894,440.86988067557104,1 45227U 20012BB  26087.63942388  .00018484  00000+0  42649-3 0  9993,2 45227  53.0652 179.7703 0003668  71.9666 288.1739 15.42623610339637
STARLINK-1222,45228,53.0543,0.0002795,15.5071154,412.7487900400138,416.5459565046731,1 45228U 20012BC  26087.83399904  .00030455  00000+0  52677-3 0  9990,2 45228  53.0543 250.9416 0002795 138.6852 221.4368 15.50711540338599
STARLINK-1226,45229,53.1579,0.0001522,15.37074395,453.72593443344886,455.8058700768961,1 45229U 20012BD  26087.91668981  .00067558  00000+0  18294-2 0  9994,2 45229  53.1579 269.1304 0001522  89.5164 161.5522 15.37074395  5856
STARLINK-1227,45230,53.1569,0.0001227,15.37003881,454.13646247375345,455.81330813040586,1 45230U 20012BE  26087.91668981  .00073904  00000+0  20031-2 0  9990,2 45230  53.1569 269.2909 0001227  73.0066 103.8984 15.37003881  5819
STARLINK-1246,45235,53.1589,0.0001373,15.30205274,474.25835917415134,476.1402853282416,1 45235U 20012BK  26087.82889878  .00001607  00000+0  66376-4 0  9990,2 45235  53.1589 310.3487 0001373  84.4874 275.6284 15.30205274337902
STARLINK-1270,45237,53.0466,0.0001706,15.49976001,415.6369921161968,417.9554233266708,1 45237U 20012BM  26087.75099455  .00097764  00000+0  17033-2 0  9991,2 45237  53.0466 256.2906 0001706 207.2915 152.8003 15.49976001338620
STARLINK-1279,45360,53.0426,0.0002755,15.60817356,383.4315121443642,387.15816308689136,1 45360U 20019A   26087.48172633  .00127890  00000+0  14879-2 0  9994,2 45360  53.0426   7.2878 0002755 166.9579 193.1506 15.60817356333606
STARLINK-1301,45361,53.044,7.34e-05,15.67334513,366.03801036199366,367.0281279281444,1 45361U 20019B   26087.48650167  .00116380  00000+0  10492-2 0  9997,2 45361  53.0440  11.6678 0000734 105.0528 255.0569 15.67334513333550
STARLINK-1262,45366,53.1571,0.0001447,15.29359188,476.73468913439683,478.7187760986171,1 45366U 20019G   26087.68886821 -.00000331  00000+0  86504-6 0  9992,2 45366  53.1571  76.9696 0001447  93.7446 266.3720 15.29359188332667
STARLINK-1273,45367,53.051,0.0004017,15.46814339,423.3189648721109,428.78545048155866,1 45367U 20019H   26087.35177692  .00086000  00000+0  16763-2 0  9998,2 45367  53.0510  65.8585 0004017  67.4968 292.6464 15.46814339332780
STARLINK-1277,45369,53.0503,0.0005802,15.51995399,406.9617215118078,414.8397208834849,1 45369U 20019K   26087.64535677  .00102357  00000+0  16576-2 0  9999,2 45369  53.0503  61.5916 0005802  76.2381 283.9274 15.51995399332879
STARLINK-1281,45370,53.1605,0.0001215,15.30192704,474.4041691235034,476.0695389700368,1 45370U 20019L   26087.67804196  .00000395  00000+0  25455-4 0  9996,2 45370  53.1605  77.0893 0001215  94.5224 265.5915 15.30192704332665
STARLINK-1300,45374,53.1616,0.0001483,15.30198118,474.20433579261044,476.23704168308905,1 45374U 20019Q   26087.70016000 -.00000308  00000+0  17300-5 0  9999,2 45374  53.1616  76.9926 0001483  90.1574 269.9597 15.30198118332662
STARLINK-1302,45375,53.0517,0.0003575,15.56887964,394.2481041824558,399.0920912573256,1 45375U 20019R   26087.21300801  .00114998  00000+0  15551-2 0  9994,2 45375  53.0517  62.1777 0003575  32.5252 327.5979 15.56887964332825
STARLINK-1304,45376,53.0492,0.0003768,15.51219982,410.6040203957473,415.72194406235394,1 45376U 20019S   26087.21792253  .00099426  00000+0  16568-2 0  9998,2 45376  53.0492  60.6187 0003768  59.4933 300.6447 15.51219982332842
STARLINK-1305,45377,53.0434,0.0004114,15.56574473,394.7921591188133,400.367218810492,1 45377U 20019T   26087.86503031  .00109208  00000+0  14954-2 0  9991,2 45377  53.0434  39.5621 0004114 141.6244 218.5060 15.56574473333205
STARLINK-1319,45379,53.0443,0.0002977,15.67498271,364.05556456871545,368.07106143507644,1 45379U 20019V   26087.87653581  .00072046  00000+0  65056-3 0  9999,2 45379  53.0443  35.3538 0002977 107.9503 252.1837 15.67498271333261
STARLINK-1266,45383,53.0507,0.0004971,15.48142742,418.77894444548747,425.53979909830286,1 45383U 20019Z   26087.20173416  .00086535  00000+0  16105-2 0  9993,2 45383  53.0507  44.5486 0004971  81.7374 278.4196 15.48142742333067
STARLINK-1267,45384,53.0497,0.0001454,15.53064793,406.79720489217743,408.77055068343907,1 45384U 20019AA  26087.88155806  .00084770  00000+0  13259-2 0  9997,2 45384  53.0497  34.7185 0001454  15.2649 344.8404 15.53064793333260
STARLINK-1272,45386,53.0446,0.0003152,15.59481451,387.02375961588314,391.2898616340999,1 45386U 20019AC  26087.91668981  .00083672  00000+0  10322-2 0  9994,2 45386  53.0446  16.3992 0003152 162.7754 217.9720 15.59481451  5920
STARLINK-1274,45387,53.0285,0.000223,15.5005915,415.03799163634176,418.0684234689106,1 45387U 20019AD  26087.50251326  .00092778  00000+0  16131-2 0  9992,2 45387  53.0285  12.8034 0002230 266.0189  94.0564 15.50059150333535
STARLINK-1280,45388,53.0436,0.0002009,15.67805177,363.82840979242974,366.53787582581117,1 45388U 20019AE  26087.21489820  .00073782  00000+0  65779-3 0  9990,2 45388  53.0436  31.3364 0002009 123.3734 236.7474 15.67805177333240
STARLINK-1283,45389,53.0446,9.98e-05,15.63323282,377.39101643561753,378.73955441178805,1 45389U 20019AF  26087.24007050  .00058944  00000+0  63072-3 0  9992,2 45389  53.0446  19.6761 0000998 102.9996 257.1129 15.63323282333422
STARLINK-1284,45390,53.0478,0.0005054,15.54910843,398.98492078054005,405.8386995178389,1 45390U 20019AG  26087.27204154  .00098707  00000+0  14394-2 0  9994,2 45390  53.0478  41.3613 0005054  88.4973 271.6616 15.54910843333111
STARLINK-1297,45395,53.0466,0.0005901,15.57755923,390.1569859670617,398.1496429962126,1 45395U 20019AM  26087.89457712  .00107002  00000+0  14021-2 0  9993,2 45395  53.0466  37.7112 0005901  93.1613 267.0073 15.57755923332407
STARLINK-1307,45397,53.0558,0.0003061,15.51010663,411.69498466942696,415.8529925766625,1 45397U 20019AP  26087.56895295  .00031173  00000+0  53326-3 0  9998,2 45397  53.0558  40.0907 0003061  82.1346 278.0010 15.51010663332981
STARLINK-1255,45399,53.0417,0.0001569,15.55184924,400.5513882821306,402.6788745009608,1 45399U 20019AR  26087.21649465  .00100568  00000+0  14520-2 0  9995,2 45399  53.0417  13.3449 0001569 101.5803 258.5383 15.55184924333316
STARLINK-1260,45404,53.1602,0.0001526,15.31014889,471.7375866110133,473.82848740630834,1 45404U 20019AW  26087.57160396  .00079287  00000+0  25944-2 0  9997,2 45404  53.1602  41.5130 0001526 101.4979 258.6194 15.31014889332862
STARLINK-1263,45405,53.1605,9.34e-05,15.30197115,474.583579634992,475.86378741067347,1 45405U 20019AX  26087.88870302  .00003562  00000+0  13232-3 0  9998,2 45405  53.1605  40.0932 0000934 100.1459 259.9647 15.30197115332917
